BEIJING 1               
1 28890U 05043A   20115.82201781  .00000051  00000-0  19581-4 0  9991
2 28890  98.0208 246.1930 0016517 110.1206 250.1774 14.61287543772689
HJ-1A                   
1 33320U 08041A   20115.81837973  .00000099  00000-0  21139-4 0  9997
2 33320  97.7934 169.6254 0025521 244.6446 115.2112 14.77059473626688
HJ-1B                   
1 33321U 08041B   20115.81980737  .00000124  00000-0  24597-4 0  9995
2 33321  97.8005 171.8586 0033346 273.2375  86.5004 14.77220032626686
YAOGAN 4                
1 33446U 08061A   20115.82535598  .00000054  00000-0  14587-4 0  9997
2 33446  97.7217  73.6717 0016834 149.6658 210.5530 14.77022051613912
DEIMOS-1                
1 35681U 09041A   20115.85334149  .00000076  00000-0  19696-4 0  9991
2 35681  97.8193 351.4835 0001084 158.2119 201.9137 14.71830371576502
UK-DMC 2                
1 35683U 09041C   20115.85546954  .00000032  00000-0  12664-4 0  9992
2 35683  97.7048 321.2961 0001157  89.3179 270.8160 14.71142198576298
RISAT 1                 
1 38248U 12017A   20115.77443524  .00000516  00000-0  35592-4 0  9991
2 38248  97.5680 125.6559 0005866  75.5569 284.6311 15.10048718440533
DMC3-FM1                
1 40715U 15032A   20115.95100664  .00000006  00000-0  85208-5 0  9992
2 40715  97.9394  10.7729 0016820  39.3759 320.8673 14.73685592257776
DMC3-FM2                
1 40716U 15032B   20115.90525316  .00000011  00000-0  93374-5 0  9992
2 40716  97.9421  11.0674 0014205  48.5662 311.6765 14.73690993257772
DMC3-FM3                
1 40717U 15032C   20115.86017824  .00000012  00000-0  94262-5 0  9996
2 40717  97.9429  11.7376 0017754  41.1937 319.0603 14.73696970257766
